NORAD_CAT_ID,OBJECT_NAME,OBJECT_TYPE,EPOCH,MEAN_MOTION,ECCENTRICITY,INCLINATION,RA_OF_ASC_NODE,ARG_OF_PERICENTER,MEAN_ANOMALY,BSTAR,MEAN_MOTION_DOT,MEAN_MOTION_DDOT,TLE_LINE0,TLE_LINE1,TLE_LINE2,SEMIMAJOR_AXIS,PERIOD,APOGEE,PERIGEE,DECAYED
51880.0,STARLINK-3566,PAYLOAD,2023-04-28 22:00:00,15.10538385,0.0001297,53.2186,23.7521,94.069,20.3064,-0.0056932,-0.00093997,0.0,0 STARLINK-3566,1 51880U 22022AE  23118.91667824 -.00093997  00000-0 -56932-2 0  9994,2 51880  53.2186  23.7521 0001297  94.0690  20.3064 15.10538385 65236,6912.694,95.33,535.456,533.662,0.0
51880.0,STARLINK-3566,PAYLOAD,2023-04-29 14:00:01,15.10441682,0.0001241,53.2182,20.7508,110.4266,31.1593,0.0037751,0.00063052,0.0,0 STARLINK-3566,1 51880U 22022AE  23119.58335648  .00063052  00000-0  37751-2 0  9999,2 51880  53.2182  20.7508 0001241 110.4266  31.1593 15.10441682  1303,6912.989,95.336,535.712,533.996,0.0
51880.0,STARLINK-3566,PAYLOAD,2023-04-29 22:00:00,15.10514975,0.0001253,53.2182,19.2519,102.7014,52.3617,-0.0040706,-0.00067495,0.0,0 STARLINK-3566,1 51880U 22022AE  23119.91667824 -.00067495  00000-0 -40706-2 0  9991,2 51880  53.2182  19.2519 0001253 102.7014  52.3617 15.10514975 65382,6912.765,95.332,535.497,533.764,0.0
51880.0,STARLINK-3566,PAYLOAD,2023-04-30 14:00:01,15.10437554,0.0001156,53.2177,16.2506,102.6855,79.5039,0.0037477,0.00062581,0.0,0 STARLINK-3566,1 51880U 22022AE  23120.58334491  .00062581  00000-0  37477-2 0  9997,2 51880  53.2177  16.2506 0001156 102.6855  79.5039 15.10437554  1301,6913.002,95.337,535.666,534.067,0.0
51880.0,STARLINK-3566,PAYLOAD,2023-04-30 16:00:00,15.10448342,0.0001205,53.2178,15.8755,103.4699,172.0963,0.003132,0.00052191,0.0,0 STARLINK-3566,1 51880U 22022AE  23120.66667824  .00052191  00000-0  31320-2 0  9992,2 51880  53.2178  15.8755 0001205 103.4699 172.0963 15.10448342 65495,6912.969,95.336,535.667,534.001,0.0
51880.0,STARLINK-3566,PAYLOAD,2023-05-01 00:18:48,15.10473776,0.0001356,53.2201,14.323,103.4076,256.7068,-3.9844e-05,-9.56e-06,0.0,0 STARLINK-3566,1 51880U 22022AE  23121.01306583 -.00000956  00000-0 -39844-4 0  9999,2 51880  53.2201  14.3230 0001356 103.4076 256.7068 15.10473776 65552,6912.891,95.334,535.693,533.819,0.0
51880.0,STARLINK-3566,PAYLOAD,2023-05-01 20:57:28,15.10481281,0.0001234,53.2196,10.4467,108.7069,251.4058,2.6711e-05,1.52e-06,0.0,0 STARLINK-3566,1 51880U 22022AE  23121.87324749  .00000152  00000-0  26711-4 0  9992,2 51880  53.2196  10.4467 0001234 108.7069 251.4058 15.10481281 65684,6912.868,95.334,535.586,533.88,0.0
51880.0,STARLINK-3566,PAYLOAD,2023-05-01 22:32:45,15.10480865,0.000132,53.2197,10.15,104.3213,255.7926,7.8466e-05,1.014e-05,0.0,0 STARLINK-3566,1 51880U 22022AE  23121.93941483  .00001014  00000-0  78466-4 0  9991,2 51880  53.2197  10.1500 0001320 104.3213 255.7926 15.10480865 65698,6912.869,95.334,535.647,533.822,0.0
51880.0,STARLINK-3566,PAYLOAD,2023-05-02 01:43:19,15.10484315,0.0001287,53.2193,9.5507,92.7155,267.3986,0.00011579,1.636e-05,0.0,0 STARLINK-3566,1 51880U 22022AE  23122.07174850  .00001636  00000-0  11579-3 0  9994,2 51880  53.2193   9.5507 0001287  92.7155 267.3986 15.10484315 65712,6912.859,95.334,535.614,533.834,0.0
51880.0,STARLINK-3566,PAYLOAD,2023-05-02 20:46:42,15.10478698,0.0001372,53.2198,5.9774,86.3904,273.7246,0.00012896,1.855e-05,0.0,0 STARLINK-3566,1 51880U 22022AE  23122.86577156  .00001855  00000-0  12896-3 0  9993,2 51880  53.2198   5.9774 0001372  86.3904 273.7246 15.10478698 65839,6912.876,95.334,535.69,533.793,0.0
51880.0,STARLINK-3566,PAYLOAD,2023-05-02 23:57:16,15.10481465,0.0001289,53.2191,5.3832,87.7612,272.3529,0.00015708,2.324e-05,0.0,0 STARLINK-3566,1 51880U 22022AE  23122.99810537  .00002324  00000-0  15708-3 0  9997,2 51880  53.2191   5.3832 0001289  87.7612 272.3529 15.10481465 65856,6912.868,95.334,535.624,533.842,0.0
51880.0,STARLINK-3566,PAYLOAD,2023-05-03 09:28:58,15.10480334,0.0001224,53.2189,3.5975,87.8452,272.2681,0.00010387,1.437e-05,0.0,0 STARLINK-3566,1 51880U 22022AE  23123.39511605  .00001437  00000-0  10387-3 0  9998,2 51880  53.2189   3.5975 0001224  87.8452 272.2681 15.10480334 65912,6912.871,95.334,535.582,533.89,0.0
51880.0,STARLINK-3566,PAYLOAD,2023-05-03 20:35:56,15.10482584,0.0001215,53.2185,1.5139,84.5555,275.5576,2.6154e-06,-2.49e-06,0.0,0 STARLINK-3566,1 51880U 22022AE  23123.85829415 -.00000249  00000-0  26154-5 0  9992,2 51880  53.2185   1.5139 0001215  84.5555 275.5576 15.10482584 65981,6912.864,95.334,535.569,533.889,0.0
51880.0,STARLINK-3566,PAYLOAD,2023-05-03 22:11:13,15.10482225,0.0001321,53.2186,1.2161,83.4693,276.6451,6.8662e-06,-1.78e-06,0.0,0 STARLINK-3566,1 51880U 22022AE  23123.92446230 -.00000178  00000-0  68662-5 0  9991,2 51880  53.2186   1.2161 0001321  83.4693 276.6451 15.10482225 65990,6912.865,95.334,535.644,533.817,0.0
51880.0,STARLINK-3566,PAYLOAD,2023-05-04 09:18:11,15.10483488,0.0001334,53.2185,359.1315,85.0474,275.0671,5.2353e-06,-2.05e-06,0.0,0 STARLINK-3566,1 51880U 22022AE  23124.38763714 -.00000205  00000-0  52353-5 0  9992,2 51880  53.2185 359.1315 0001334  85.0474 275.0671 15.10483488 66062,6912.861,95.334,535.649,533.804,0.0
51880.0,STARLINK-3566,PAYLOAD,2023-05-04 22:00:27,15.1048452,0.0001112,53.218,356.7481,83.4778,276.6341,1.8463e-05,1.5e-07,0.0,0 STARLINK-3566,1 51880U 22022AE  23124.91698081  .00000015  00000-0  18463-4 0  9996,2 51880  53.2180 356.7481 0001112  83.4778 276.6341 15.10484520 66145,6912.858,95.334,535.492,533.955,0.0
51880.0,STARLINK-3566,PAYLOAD,2023-05-05 15:28:33,15.10474312,0.0001221,53.2175,353.4725,89.4082,270.705,5.7994e-05,6.73e-06,0.0,0 STARLINK-3566,1 51880U 22022AE  23125.64483545  .00000673  00000-0  57994-4 0  9996,2 51880  53.2175 353.4725 0001221  89.4082 270.7050 15.10474312 66251,6912.889,95.334,535.599,533.91,0.0
51880.0,STARLINK-3566,PAYLOAD,2023-05-05 21:49:41,15.10476914,0.000107,53.2177,352.2809,94.3719,265.7396,6.7294e-05,8.28e-06,0.0,0 STARLINK-3566,1 51880U 22022AE  23125.90950609  .00000828  00000-0  67294-4 0  9991,2 51880  53.2177 352.2809 0001070  94.3719 265.7396 15.10476914 66298,6912.882,95.334,535.486,534.007,0.0
51880.0,STARLINK-3566,PAYLOAD,2023-05-06 21:38:54,15.10483425,0.0001218,53.2182,347.8183,76.7601,283.3527,0.00010565,1.467e-05,0.0,0 STARLINK-3566,1 51880U 22022AE  23126.90202376  .00001467  00000-0  10565-3 0  9991,2 51880  53.2182 347.8183 0001218  76.7601 283.3527 15.10483425 66441,6912.862,95.334,535.569,533.885,0.0
51880.0,STARLINK-3566,PAYLOAD,2023-05-07 21:28:10,15.10467615,0.000115,53.2181,343.3476,94.8301,265.2823,-1.4674e-05,-5.37e-06,0.0,0 STARLINK-3566,1 51880U 22022AE  23127.89456255 -.00000537  00000-0 -14674-4 0  9992,2 51880  53.2181 343.3476 0001150  94.8301 265.2823 15.10467615 66596,6912.91,95.335,535.57,533.98,0.0
51880.0,STARLINK-3566,PAYLOAD,2023-05-08 21:17:23,15.10489496,0.0001233,53.2175,338.8812,100.0433,260.0699,2.3274e-05,9.5e-07,0.0,0 STARLINK-3566,1 51880U 22022AE  23128.88707241  .00000095  00000-0  23274-4 0  9999,2 51880  53.2175 338.8812 0001233 100.0433 260.0699 15.10489496 66742,6912.843,95.333,535.56,533.856,0.0
51880.0,STARLINK-3566,PAYLOAD,2023-05-09 00:27:56,15.10495127,0.0001235,53.2179,338.2849,90.0948,270.0187,5.9599e-05,7e-06,0.0,0 STARLINK-3566,1 51880U 22022AE  23129.01940216  .00000700  00000-0  59599-4 0  9998,2 51880  53.2179 338.2849 0001235  90.0948 270.0187 15.10495127 66764,6912.826,95.333,535.545,533.837,0.0
51880.0,STARLINK-3566,PAYLOAD,2023-05-10 00:17:11,15.1048227,0.0001333,53.2172,333.8175,95.9891,264.1254,0.00022956,3.532e-05,0.0,0 STARLINK-3566,1 51880U 22022AE  23130.01193686  .00003532  00000-0  22956-3 0  9993,2 51880  53.2172 333.8175 0001333  95.9891 264.1254 15.10482270 66911,6912.865,95.334,535.652,533.809,0.0
51880.0,STARLINK-3566,PAYLOAD,2023-05-10 17:45:19,15.10457718,0.0001434,53.2169,330.5451,93.4466,266.6691,-0.00014869,-2.766e-05,0.0,0 STARLINK-3566,1 51880U 22022AE  23130.73980866 -.00002766  00000-0 -14869-3 0  9990,2 51880  53.2169 330.5451 0001434  93.4466 266.6691 15.10457718 67025,6912.94,95.335,535.796,533.814,0.0
51880.0,STARLINK-3566,PAYLOAD,2023-05-10 19:20:36,15.10454495,0.0001518,53.2171,330.2472,103.6885,256.4277,-0.00013668,-2.566e-05,0.0,0 STARLINK-3566,1 51880U 22022AE  23130.80597661 -.00002566  00000-0 -13668-3 0  9999,2 51880  53.2171 330.2472 0001518 103.6885 256.4277 15.10454495 67037,6912.95,95.336,535.864,533.766,0.0
51880.0,STARLINK-3566,PAYLOAD,2023-05-11 11:13:25,15.10473367,0.0001237,53.2176,327.2686,80.0715,280.0418,0.00029752,4.663e-05,0.0,0 STARLINK-3566,1 51880U 22022AE  23131.46765624  .00004663  00000-0  29752-3 0  9997,2 51880  53.2176 327.2686 0001237  80.0715 280.0418 15.10473367 67133,6912.892,95.334,535.612,533.902,0.0
51880.0,STARLINK-3566,PAYLOAD,2023-05-11 19:09:49,15.10488114,0.0001278,53.2187,325.7758,125.0506,235.0607,0.00049782,8.007e-05,0.0,0 STARLINK-3566,1 51880U 22022AE  23131.79849056  .00008007  00000-0  49782-3 0  9996,2 51880  53.2187 325.7758 0001278 125.0506 235.0607 15.10488114 67182,6912.847,95.333,535.596,533.829,0.0
51880.0,STARLINK-3566,PAYLOAD,2023-05-12 01:30:57,15.10507805,0.0001171,53.2165,324.5854,86.0215,274.0912,0.0010503,0.0001725,0.0,0 STARLINK-3566,1 51880U 22022AE  23132.06315974  .00017250  00000-0  10503-2 0  9992,2 51880  53.2165 324.5854 0001171  86.0215 274.0912 15.10507805 67223,6912.787,95.332,535.462,533.843,0.0
51880.0,STARLINK-3566,PAYLOAD,2023-05-12 18:59:02,15.10511559,0.0001222,53.217,321.3105,70.2172,289.8953,0.0010134,0.00016634,0.0,0 STARLINK-3566,1 51880U 22022AE  23132.79100476  .00016634  00000-0  10134-2 0  9996,2 51880  53.2170 321.3105 0001222  70.2172 289.8953 15.10511559 67339,6912.776,95.332,535.486,533.796,0.0
51880.0,STARLINK-3566,PAYLOAD,2023-05-13 06:06:01,15.10505939,0.0002012,53.2166,319.2314,40.1762,319.9379,0.0011365,0.00018693,0.0,0 STARLINK-3566,1 51880U 22022AE  23133.25418107  .00018693  00000-0  11365-2 0  9995,2 51880  53.2166 319.2314 0002012  40.1762 319.9379 15.10505939 67401,6912.793,95.332,536.049,533.267,0.0
